<?xml version="1.0" encoding="UTF-8"?>
<kml xmlns="http://www.opengis.net/kml/2.2"><Document><Style id="id1785191656656448429"><LineStyle><color>ffff981e</color><width>4</width></LineStyle></Style><Style id="id1785191656657802454"><LineStyle><color>ff1e93ff</color><width>4</width></LineStyle></Style><Style id="id17851916566567696"><LineStyle><color>ffd171f3</color><width>2</width></LineStyle><PolyStyle><color>1ad171f3</color><fill>1</fill><outline>1</outline></PolyStyle></Style><ExtendedData><Data name="creator"><value><![CDATA[Yandex Map Constructor]]></value></Data></ExtendedData><name><![CDATA[Зелёный хребет — Восточная рекреационная зона Южно-Сахалинска (предварительная трассировка)]]></name><description><![CDATA[Концептуальная схема по открытым данным. Координаты ориентировочные, требуют уточнения по DEM, OSM и полевому обследованию. Не является проектной документацией.]]></description><Folder><Placemark><name/><description><![CDATA[Восточная рекреационная зона (bbox, уточнить)]]></description><styleUrl>#id17851916566567696</styleUrl><Polygon><outerBoundaryIs><LinearRing><coordinates>142.74695303249607,46.98393332338098 142.74408135033443,46.98188978785249 142.74520444108924,46.9792123285017 142.74710729984463,46.97397450247906 142.75054781918848,46.97408727287141 142.75261504751623,46.97138004459381 142.7538312607643,46.967375335885905 142.74663523105806,46.966631298944385 142.74647731780735,46.96494712169986 142.74823754219267,46.96383612813535 142.74903182369658,46.963221862122495 142.7505127507094,46.963195197954 142.75128661744864,46.9606205349778 142.75394875933486,46.96104274229113 142.7564392398429,46.9611123701619 142.75781809303157,46.952693309601 142.75885918563776,46.94725538023153 142.7567245427705,46.9438743020129 142.75780298854863,46.94065528181133 142.76048797864965,46.92546410913067 142.76068715738796,46.920107244531586 142.7569381244572,46.916984729636 142.7613859222754,46.914273735592374 142.76308713806242,46.91038623821412 142.8662183761571,46.921596738724006 142.8407266616801,46.967144533083065 142.79978542327606,46.99064603841291 142.7653636932352,46.997575752977 142.76070329844725,46.995443805912984 142.75913280844432,46.99237212846862 142.76131333112505,46.989987154669 142.7579496145227,46.989093335436394 142.75922075509772,46.987201031968574 142.7637534618355,46.98554360505097 142.76076993941996,46.984317479661485 142.75051136016555,46.98421468940415 142.74695303249607,46.98393332338098</coordinates></LinearRing></outerBoundaryIs></Polygon></Placemark><Placemark><name/><description><![CDATA[Ось A: Уюновка — пл. Гагарина — Славы — Ботсад — Больничная<br/><br/>Основной прогулочный маршрут по наиболее приближенному к застройке склонам; нижний рубеж перехвата стока.]]></description><styleUrl>#id1785191656656448429</styleUrl><LineString><coordinates>142.76016613769525,46.92504535034363 142.76303915631766,46.92407580985709 142.76574051356306,46.922547602526905 142.7671521010398,46.92249022360708 142.7686878156661,46.92455123103172 142.77283212852473,46.92867300652124 142.77245185470574,46.931036314179586 142.77206621646872,46.935872460882045 142.7727320041655,46.93829791124531 142.77367556990427,46.94001598516031 142.77325831699355,46.94184751004503 142.77282976341235,46.94336156725897 142.77112447834,46.94568381149924 142.77096414566026,46.947947176952475 142.77114911651594,46.950447508464144 142.77086573028555,46.95177238908558 142.7704989128112,46.953437048428825 142.77289093399028,46.95548039943977 142.77629708480805,46.958896786332275 142.77444610595674,46.96005058601883 142.77153833675362,46.96147246512857 142.77032572364786,46.966008542951684 142.76883416080446,46.969677628107966 142.76858190584164,46.97066751789216 142.7674928016662,46.972523962639826 142.76477858734125,46.974526376610164 142.76469293785087,46.97617623897659 142.76338392925248,46.97863318295304 142.76099130821214,46.98161133526758 142.76019182872756,46.98678157095979 142.7587755317687,46.98724477727427 142.7579546852111,46.98748772850917 142.75721421432496,46.98796628602507</coordinates></LineString></Placemark><Placemark><name/><description><![CDATA[Ось C: водораздел Уюновка/Рогатка — верх «Горного воздуха»<br/><br/>Спортивно-туристический маршрут по гребню; наиболее безопасная от селей линия. Провести по линии водораздела из DEM.]]></description><styleUrl>#id1785191656657802454</styleUrl><LineString><coordinates>142.76067700386042,46.983916350986334 142.767180896759,46.9828196539806 142.77260117721542,46.978866620584704 142.77537569046004,46.97832556578893 142.7777425079344,46.9774320376276 142.78687496566764,46.973618132565704 142.78876545906064,46.97032443304701 142.79164300537104,46.968352530414016 142.79471792602533,46.96591163122623 142.7961159114836,46.96414761682471 142.79664324283587,46.963353728335456 142.79734223556505,46.96258920859265</coordinates></LineString></Placemark><Placemark><name><![CDATA[N01 Уюновка (вход с севера)]]></name><description/><Style><IconStyle><color>ffff981e</color><Icon><href>https://api-maps.yandex.ru/i/0.4/micro/pmbls.png</href></Icon><hotSpot x="7" y="28" xunits="pixels" yunits="insetPixels"/></IconStyle></Style><Point><coordinates>142.75711579894943,46.989290586971755</coordinates></Point></Placemark><Placemark><name><![CDATA[N03 Переход через р. Еланька]]></name><description/><Style><IconStyle><color>ffff981e</color><Icon><href>https://api-maps.yandex.ru/i/0.4/micro/pmbls.png</href></Icon><hotSpot x="7" y="28" xunits="pixels" yunits="insetPixels"/></IconStyle></Style><Point><coordinates>142.773969306942,46.92920974444745</coordinates></Point></Placemark><Placemark><name><![CDATA[N05 Ботанический сад]]></name><description/><Style><IconStyle><color>ffff981e</color><Icon><href>https://api-maps.yandex.ru/i/0.4/micro/pmbls.png</href></Icon><hotSpot x="7" y="28" xunits="pixels" yunits="insetPixels"/></IconStyle></Style><Point><coordinates>142.7623433227525,46.94514918096839</coordinates></Point></Placemark><Placemark><name><![CDATA[P1 Переход через Уюновку]]></name><description/><Style><IconStyle><color>ffff981e</color><Icon><href>https://api-maps.yandex.ru/i/0.4/micro/pmbls.png</href></Icon><hotSpot x="7" y="28" xunits="pixels" yunits="insetPixels"/></IconStyle></Style><Point><coordinates>142.7612016296354,46.984370070860315</coordinates></Point></Placemark></Folder></Document></kml>